     2              NAVIGATION DATA                         RINEX VERSION / TYPE
ephVote             Stanford GPS Lab    2021-03-25 10:12:13 PGM / RUN BY / DATE 
                                                            END OF HEADER       
 3 20  1  5  4  0  0.0 -6.605684757233E-05 -7.503331289627E-12  0.000000000000E+00
     9.100000000000E+01 -1.625000000000E+01  4.679837791171E-09 -3.998905017074E-01
    -9.071081876755E-07  2.603981876746E-03  6.310641765594E-06  5.153637228012E+03
     1.440000000000E+04  1.490116119385E-08  3.390022756855E-01  4.097819328308E-08
     9.647416531565E-01  2.587812500000E+02  7.692111957510E-01 -8.159625595444E-09
     8.893227581482E-11  1.000000000000E+00  2.087000000000E+03  0.000000000000E+00
     2.400000000000E+00  0.000000000000E+00  2.328306436539E-09  9.100000000000E+01
     7.260000000000E+03  4.000000000000E+00  2.003300000000E+02  8.213500000000E+01
 3 20  1  5  5 59 44.0 -6.610946729779E-05 -7.503331289627E-12  0.000000000000E+00
     0.000000000000E+00 -1.162500000000E+01  4.673766109690E-09  6.479595699569E-01
    -6.295740604401E-07  2.604646026157E-03  6.327405571938E-06  5.153638471603E+03
     2.158400000000E+04  2.235174179077E-08  3.389435834122E-01  3.166496753693E-08
     9.647422807484E-01  2.581562500000E+02  7.692313298925E-01 -8.167840223330E-09
     9.571827276455E-11  1.000000000000E+00  2.087000000000E+03  0.000000000000E+00
     2.400000000000E+00  0.000000000000E+00  2.328306436539E-09  0.000000000000E+00
     1.656000000000E+04  4.000000000000E+00  2.301304347826E+02  1.810695652174E+02
 3 20  1  5  6  0  0.0 -6.611039862037E-05 -7.503331289627E-12  0.000000000000E+00
     1.220000000000E+02 -1.162500000000E+01  4.673766109690E-09  6.502915432987E-01
    -6.295740604401E-07  2.604638226330E-03  6.327405571938E-06  5.153638477325E+03
     2.160000000000E+04  2.235174179077E-08  3.389434444349E-01  3.166496753693E-08
     9.647422939146E-01  2.581562500000E+02  7.692331219672E-01 -8.167840223330E-09
     9.571827276455E-11  1.000000000000E+00  2.087000000000E+03  0.000000000000E+00
     3.400000000000E+00  0.000000000000E+00  2.328306436539E-09  1.220000000000E+02
     1.440000000000E+04  4.000000000000E+00  2.111374407583E+02  1.591090047393E+02
 3 20  1  5  7 59 44.0 -6.616301834583E-05 -7.503331289627E-12  0.000000000000E+00
     6.000000000000E+00 -6.406250000000E+00  4.674480425158E-09  1.698451443457E+00
    -3.892928361893E-07  2.604492940009E-03  6.211921572685E-06  5.153637046814E+03
     2.878400000000E+04 -9.126961231232E-08  3.388844376342E-01  5.401670932770E-08
     9.647433647707E-01  2.605312500000E+02  7.689435373334E-01 -8.119266771480E-09
     1.782217093638E-10  1.000000000000E+00  2.087000000000E+03  0.000000000000E+00
     2.400000000000E+00  0.000000000000E+00  2.328306436539E-09  6.000000000000E+00
     2.160000000000E+04  4.000000000000E+00  2.451142857143E+02  1.851020408163E+02
 3 20  1  5 10  0  0.0 -6.621703505516E-05 -7.503331289627E-12  0.000000000000E+00
     7.000000000000E+00 -2.781250000000E+00  4.685195157184E-09  2.751354843784E+00
    -2.272427082062E-07  2.605105517432E-03  6.522983312607E-06  5.153634920120E+03
     3.600000000000E+04 -5.774199962616E-08  3.388260262412E-01 -4.842877388000E-08
     9.647450632186E-01  2.532812500000E+02  7.685792092891E-01 -8.051406801982E-09
     2.050085394286E-10  1.000000000000E+00  2.087000000000E+03  0.000000000000E+00
     2.400000000000E+00  0.000000000000E+00  2.328306436539E-09  7.000000000000E+00
     2.880000000000E+04  4.000000000000E+00  1.961989795918E+02  1.301326530612E+02
 3 20  1  5 12  0  0.0 -6.627058610320E-05 -7.503331289627E-12  0.000000000000E+00
     8.000000000000E+00 -4.937500000000E+00  4.770913013391E-09 -2.481642928058E+00
    -1.806765794754E-07  2.605416462757E-03  6.575137376785E-06  5.153634326935E+03
     4.320000000000E+04  5.215406417847E-08  3.387674246687E-01 -6.519258022308E-08
     9.647465729500E-01  2.539062500000E+02  7.685981657815E-01 -8.110337828125E-09
     2.782258749387E-10  1.000000000000E+00  2.087000000000E+03  0.000000000000E+00
     2.400000000000E+00  0.000000000000E+00  2.328306436539E-09  8.000000000000E+00
     3.600000000000E+04  4.000000000000E+00  1.211570247934E+02  9.107438016529E+01
 3 20  1  5 14  0  0.0 -6.632413715124E-05 -7.503331289627E-12  0.000000000000E+00
     9.000000000000E+00 -7.156250000000E+00  4.798057001190E-09 -1.431339080492E+00
    -3.427267074585E-07  2.605424029753E-03  6.718561053276E-06  5.153634765625E+03
     5.040000000000E+04  4.656612873077E-08  3.387089372039E-01 -1.490116119385E-08
     9.647487219767E-01  2.537812500000E+02  7.685012986609E-01 -8.111409301327E-09
     3.025126008641E-10  1.000000000000E+00  2.087000000000E+03  0.000000000000E+00
     2.400000000000E+00  0.000000000000E+00  2.328306436539E-09  9.000000000000E+00
     4.320000000000E+04  4.000000000000E+00  9.708247422680E+01  8.305154639175E+01
 3 20  1  5 16  0  0.0 -6.637815386057E-05 -7.503331289627E-12  0.000000000000E+00
     2.200000000000E+01 -9.031250000000E+00  4.772698802062E-09 -3.809586711092E-01
    -4.097819328308E-07  2.605703542940E-03  6.657093763351E-06  5.153635772705E+03
     5.760000000000E+04  2.793967723846E-08  3.386504482762E-01  3.166496753693E-08
     9.647507071565E-01  2.571250000000E+02  7.683271119311E-01 -8.144267812873E-09
     2.903692379014E-10  1.000000000000E+00  2.087000000000E+03  0.000000000000E+00
     2.400000000000E+00  0.000000000000E+00  2.328306436539E-09  2.200000000000E+01
     5.040000000000E+04  4.000000000000E+00  1.050476190476E+02  9.402857142857E+01
 3 20  1  5 18  0  0.0 -6.643170490861E-05 -7.503331289627E-12  0.000000000000E+00
     2.300000000000E+01 -4.531250000000E+00  4.680194948905E-09  6.691887773472E-01
    -4.526227712631E-07  2.606376423500E-03  6.634742021561E-06  5.153637077332E+03
     6.480000000000E+04  3.166496753693E-08  3.385917794095E-01  3.166496753693E-08
     9.647527976665E-01  2.551562500000E+02  7.683849644894E-01 -8.147125074747E-09
     2.935836575092E-10  1.000000000000E+00  2.087000000000E+03  0.000000000000E+00
     2.400000000000E+00  0.000000000000E+00  2.328306436539E-09  2.300000000000E+01
     5.760000000000E+04  4.000000000000E+00  2.103714285714E+02  1.100571428571E+02
 3 20  1  5 20  0  0.0 -6.648572161794E-05 -7.503331289627E-12  0.000000000000E+00
     2.400000000000E+01 -7.812500000000E-01  4.593405619496E-09  1.719560595012E+00
    -7.450580596924E-08  2.606383408420E-03  6.390735507011E-06  5.153636312485E+03
     7.200000000000E+04 -7.078051567078E-08  3.385328238110E-01  4.656612873077E-08
     9.647552729238E-01  2.554062500000E+02  7.682175408298E-01 -8.102123200238E-09
     3.675153084878E-10  1.000000000000E+00  2.087000000000E+03  0.000000000000E+00
     2.400000000000E+00  0.000000000000E+00  2.328306436539E-09  2.400000000000E+01
     6.480000000000E+04  4.000000000000E+00  2.051121951220E+02  1.690487804878E+02
 3 20  1  5 22  0  0.0 -6.653927266598E-05 -7.503331289627E-12  0.000000000000E+00
     2.500000000000E+01  1.812500000000E+00  4.533403120151E-09  2.770085444149E+00
     1.192092895508E-07  2.606985624880E-03  6.860122084618E-06  5.153634368896E+03
     7.920000000000E+04  7.450580596924E-09  3.384747708328E-01 -3.725290298462E-08
     9.647584752515E-01  2.485625000000E+02  7.678974587429E-01 -7.999618930524E-09
     3.900162457421E-10  1.000000000000E+00  2.087000000000E+03  0.000000000000E+00
     2.400000000000E+00  0.000000000000E+00  2.328306436539E-09  2.500000000000E+01
     7.200000000000E+04  4.000000000000E+00  1.840597826087E+02  1.660271739130E+02
 4 20  1  5  0  0  0.0 -2.976320683956E-05 -5.343281372916E-12  0.000000000000E+00
     6.000000000000E+00 -2.371875000000E+01  4.573761944115E-09 -4.456777148943E-02
    -1.212581992149E-06  4.482616204768E-04  9.121373295784E-06  5.153729728699E+03
     0.000000000000E+00  2.980232238770E-08  1.417385159278E+00 -3.725290298462E-09
     9.594910602311E-01  2.020312500000E+02 -2.733665702115E+00 -8.013190924423E-09
    -2.182233755938E-10  1.000000000000E+00  2.087000000000E+03  0.000000000000E+00
     2.400000000000E+00  6.300000000000E+01 -4.190951585770E-09  6.000000000000E+00
    -7.200000000000E+03  4.000000000000E+00  2.260221238938E+02  2.180044247788E+02
 4 20  1  5  2  0  0.0 -2.980185672641E-05 -5.343281372916E-12  0.000000000000E+00
     7.000000000000E+00 -1.693750000000E+01  4.543760694443E-09  1.005241892108E+00
    -8.456408977509E-07  4.491358995438E-04  9.009614586830E-06  5.153731321335E+03
     7.200000000000E+03  3.725290298462E-09  1.417327668061E+00  1.303851604462E-08
     9.594894861313E-01  2.047500000000E+02 -2.733329350916E+00 -7.992832933574E-09
    -2.367955777720E-10  1.000000000000E+00  2.087000000000E+03  0.000000000000E+00
     2.400000000000E+00  6.300000000000E+01 -4.190951585770E-09  7.000000000000E+00
     0.000000000000E+00  4.000000000000E+00  9.217391304348E+01  7.501086956522E+01
 4 20  1  5  4  0  0.0 -2.984004095197E-05 -5.343281372916E-12  0.000000000000E+00
     8.000000000000E+00 -1.434375000000E+01  4.589119726685E-09  2.057578054728E+00
    -7.562339305878E-07  4.488984122872E-04  8.689239621162E-06  5.153729450226E+03
     1.440000000000E+04  3.725290298462E-09  1.417270124178E+00  1.117587089539E-08
     9.594877730542E-01  2.120000000000E+02 -2.735518664875E+00 -7.992475775840E-09
    -2.378670509746E-10  1.000000000000E+00  2.087000000000E+03  0.000000000000E+00
     2.400000000000E+00  6.300000000000E+01 -4.190951585770E-09  8.000000000000E+00
     7.200000000000E+03  4.000000000000E+00  5.226923076923E+01  3.701923076923E+01
